IRIDIUM 155             
1 43573U 18061E   25355.61998286  .00000082  00000+0  22352-4 0  9994
2 43573  86.3981 130.9262 0002152  98.9586 261.1854 14.34218102387907
IRIDIUM 154             
1 43574U 18061F   25355.81025977  .00000175  00000+0  55550-4 0  9994
2 43574  86.3982 130.9714 0002064  93.4127 266.7305 14.34218808387987
IRIDIUM 163             
1 43575U 18061G   25355.37262083  .00000221  00000+0  72018-4 0  9997
2 43575  86.3982 131.0754 0001882  97.0605 263.0805 14.34218664387897
IRIDIUM 156             
1 43576U 18061H   25355.83563164  .00000253  00000+0  83299-4 0  9991
2 43576  86.3980 130.8889 0002212  99.1102 261.0344 14.34218360387951
IRIDIUM 164             
1 43577U 18061J   25355.81661398  .00000198  00000+0  63482-4 0  9998
2 43577  86.3982 130.9344 0002070  88.8830 271.2603 14.34218702387991
IRIDIUM 159             
1 43578U 18061K   25355.64535226  .00000241  00000+0  79145-4 0  9992
2 43578  86.3980 130.9465 0001984  91.0327 269.1097 14.34219090387932
IRIDIUM 180             
1 43922U 19002A   25355.71461743  .00000192  00000+0  61389-4 0  9997
2 43922  86.3958  67.7892 0001950  95.5701 264.5717 14.34217853363554
IRIDIUM 176             
1 43923U 19002B   25355.69530794  .00000794  00000+0  12194-3 0  9995
2 43923  86.6081  67.7666 0002360  95.9044 264.2442 14.72261012373139
IRIDIUM 168             
1 43924U 19002C   25355.70827383  .00000258  00000+0  84939-4 0  9993
2 43924  86.3962  67.8642 0002133  98.4843 261.6594 14.34217291363533
IRIDIUM 173             
1 43925U 19002D   25355.69558522  .00000262  00000+0  86401-4 0  9999
2 43925  86.3961  67.7655 0002090 101.8824 258.2606 14.34217818363515
IRIDIUM 169             
1 43926U 19002E   25355.81547449  .00000333  00000+0  10226-3 0  9990
2 43926  86.4225  99.3680 0002525 122.2867 237.8576 14.38611582364729
IRIDIUM 172             
1 43927U 19002F   25355.61947690  .00000256  00000+0  84277-4 0  9993
2 43927  86.3959  67.8047 0001987  94.5585 265.5838 14.34217174363519
IRIDIUM 175             
1 43928U 19002G   25355.75856479  .00000748  00000+0  11459-3 0  9990
2 43928  86.1497   9.6352 0003187  83.4515 276.7064 14.72250650373134
IRIDIUM 171             
1 43929U 19002H   25355.73999653  .00000243  00000+0  79585-4 0  9996
2 43929  86.3970  68.0414 0002423  97.5013 262.6458 14.34217206363523
IRIDIUM 170             
1 43930U 19002J   25355.70150439  .00000779  00000+0  11966-3 0  9998
2 43930  86.6082  67.7677 0002301  91.4326 268.7155 14.72255752373144
IRIDIUM 167             
1 43931U 19002K   25355.73364626  .00000117  00000+0  34877-4 0  9990
2 43931  86.3960  67.7780 0002562 101.7472 258.4011 14.34218114363525
IRIDIUM 181             
1 56726U 23068S   25355.83120221  .00000343  00000+0  95804-4 0  9993
2 56726  86.4519 130.9292 0002287  83.0392 277.1069 14.43313255136857
IRIDIUM 177             
1 56727U 23068T   25355.59798868  .00000989  00000+0  12666-3 0  9995
2 56727  86.1958  53.1228 0002209  86.3205 273.8269 14.80227898140094
IRIDIUM 174             
1 56728U 23068U   25355.62117831  .00000833  00000+0  12824-3 0  9999
2 56728  86.6090  67.9309 0002054  90.0292 270.1161 14.72249655139899
IRIDIUM 178             
1 56729U 23068V   25355.72225176  .00001220  00000+0  15721-3 0  9993
2 56729  86.6544  99.5466 0002489  91.9566 268.1941 14.80223911140111
IRIDIUM 179             
1 56730U 23068W   25355.78449117  .00001080  00000+0  13864-3 0  9994
2 56730  86.6786 107.9711 0002402  89.6368 270.5129 14.80233517140126
